63945,STARLINK-34036,2025,96.11,-1.0,+,70.0,Active,0,LEO,USA,USA,Unknown,Unknown,Unknown,1 63945U 25098V   25251.06279316  .00004012  00000+0  34380-3 0  9997,2 63945  70.0032  15.0433 0003013 267.8548  92.2266 14.98333478 19191,14.98333478,0.0003013,LEO
63946,STARLINK-34039,2025,96.11,-1.0,+,70.0,Active,0,LEO,USA,USA,Unknown,Unknown,Unknown,1 63946U 25098W   25251.05861795  .00001456  00000+0  12978-3 0  9993,2 63946  70.0033  15.0280 0003088 267.2126  92.8680 14.98336593 19198,14.98336593,0.0003088,LEO
63947,STARLINK-34034,2025,96.11,-1.0,+,70.0,Active,0,LEO,USA,USA,Unknown,Unknown,Unknown,1 63947U 25098X   25251.05845468  .00002176  00000+0  19007-3 0  9993,2 63947  70.0044  15.0273 0002467 270.7570  89.3306 14.98337422 19193,14.98337422,0.0002467,LEO
63948,STARLINK-33983,2025,96.11,-1.0,+,70.0,Active,0,LEO,USA,USA,Unknown,Unknown,Unknown,1 63948U 25098Y   25250.77070722  .00000799  00000+0  74766-4 0  9998,2 63948  70.0027  15.6260 0003201 270.8479  89.2313 14.98334012 19158,14.98334012,0.0003201,LEO
63949,STARLINK-33993,2025,96.11,-1.0,+,70.0,Active,0,LEO,USA,USA,Unknown,Unknown,Unknown,1 63949U 25098Z   25251.08363839  .00003060  00000+0  26405-3 0  9998,2 63949  70.0029  14.7031 0003133 269.5206  90.5594 14.98343375 19208,14.98343375,0.0003133,LEO
63950,STARLINK-33962,2025,96.13,-1.0,+,70.0,Active,0,LEO,USA,USA,Unknown,Unknown,Unknown,1 63950U 25098AA  25251.25002315  .00056718  00000+0  47254-2 0  9990,2 63950  70.0026  14.3386 0003125 267.2169 226.0299 14.98309334  5671,14.98309334,0.0003125,LEO
63951,STARLINK-33998,2025,96.11,-1.0,+,70.0,Active,0,LEO,USA,USA,Unknown,Unknown,Unknown,1 63951U 25098AB  25250.76219355  .00004016  00000+0  34406-3 0  9990,2 63951  70.0029  15.5961 0003176 270.7242  89.3553 14.98343407 19154,14.98343407,0.0003176,LEO
63952,STARLINK-34159,2025,94.27,-1.0,+,43.0,Active,0,LEO,USA,USA,Unknown,Unknown,Unknown,1 63952U 25099A   25251.00438979  .00024816  00000+0  90783-3 0  9995,2 63952  43.0010 128.2188 0002620 262.6187  97.4367 15.27594931 19380,15.27594931,0.000262,LEO
63953,STARLINK-34137,2025,94.26,-1.0,+,43.0,Active,0,LEO,USA,USA,Unknown,Unknown,Unknown,1 63953U 25099B   25251.05179438  .00024924  00000+0  91183-3 0  9998,2 63953  42.9991 127.7131 0000105   4.4603 355.6250 15.27592506 19409,15.27592506,1.05e-05,LEO
63954,STARLINK-33974,2025,94.27,-1.0,+,43.0,Active,0,LEO,USA,USA,Unknown,Unknown,Unknown,1 63954U 25099C   25251.07748867  .00039135  00000+0  14239-2 0  9995,2 63954  43.0000 127.9062 0001712 281.3265  78.7394 15.27586146 19408,15.27586146,0.0001712,LEO
63955,STARLINK-34170,2025,94.27,-1.0,+,43.0,Active,0,LEO,USA,USA,Unknown,Unknown,Unknown,1 63955U 25099D   25251.07363305  .00031260  00000+0  11406-2 0  9990,2 63955  42.9994 127.8778 0001455 270.7558  89.3127 15.27581863 19394,15.27581863,0.0001455,LEO
63956,STARLINK-34187,2025,94.26,-1.0,+,43.0,Active,0,LEO,USA,USA,Unknown,Unknown,Unknown,1 63956U 25099E   25250.93643602  .00027032  00000+0  98787-3 0  9996,2 63956  43.0006 128.5687 0000602 270.3485  89.7298 15.27592837 19381,15.27592837,6.02e-05,LEO
63957,STARLINK-34142,2025,94.26,-1.0,+,43.0,Active,0,LEO,USA,USA,Unknown,Unknown,Unknown,1 63957U 25099F   25250.99796884  .00025895  00000+0  94713-3 0  9994,2 63957  43.0044 128.1695 0001605 271.5895  88.4773 15.27582780 19392,15.2758278,0.0001605,LEO
63958,STARLINK-34144,2025,94.26,-1.0,+,43.0,Active,0,LEO,USA,USA,Unknown,Unknown,Unknown,1 63958U 25099G   25250.92872516  .00027328  00000+0  99717-3 0  9997,2 63958  43.0021 128.5097 0000490 100.4290 259.6617 15.27638481 19386,15.27638481,4.9e-05,LEO
63959,STARLINK-34099,2025,94.26,-1.0,+,43.0,Active,0,LEO,USA,USA,Unknown,Unknown,Unknown,1 63959U 25099H   25251.00567197  .00009828  00000+0  36688-3 0  9997,2 63959  43.0024 128.2263 0001819 276.0305  84.0340 15.27518707 19397,15.27518707,0.0001819,LEO
63960,STARLINK-34107,2025,94.27,-1.0,+,43.0,Active,0,LEO,USA,USA,Unknown,Unknown,Unknown,1 63960U 25099J   25251.05563827  .00028984  00000+0  10586-2 0  9992,2 63960  43.0015 127.7418 0001726 253.7858 106.2804 15.27579881 19401,15.27579881,0.0001726,LEO
