[{"OBJECT_NAME":"STARLINK-34036","OBJECT_ID":"2025-098V","EPOCH":"2025-09-08T01:30:25.329024","MEAN_MOTION":14.98333478,"ECCENTRICITY":0.00030139,"INCLINATION":70.0032,"RA_OF_ASC_NODE":15.0433,"ARG_OF_PERICENTER":267.8548,"MEAN_ANOMALY":92.2266,"EPHEMERIS_TYPE":0,"CLASSIFICATION_TYPE":"U","NORAD_CAT_ID":63945,"ELEMENT_SET_NO":999,"REV_AT_EPOCH":1919,"BSTAR":0.00034379524,"MEAN_MOTION_DOT":4.012e-5,"MEAN_MOTION_DDOT":0},{"OBJECT_NAME":"STARLINK-34039","OBJECT_ID":"2025-098W","EPOCH":"2025-09-08T01:24:24.590880","MEAN_MOTION":14.98336593,"ECCENTRICITY":0.00030883,"INCLINATION":70.0033,"RA_OF_ASC_NODE":15.028,"ARG_OF_PERICENTER":267.2126,"MEAN_ANOMALY":92.868,"EPHEMERIS_TYPE":0,"CLASSIFICATION_TYPE":"U","NORAD_CAT_ID":63946,"ELEMENT_SET_NO":999,"REV_AT_EPOCH":1919,"BSTAR":0.00012978187,"MEAN_MOTION_DOT":1.456e-5,"MEAN_MOTION_DDOT":0},{"OBJECT_NAME":"STARLINK-34034","OBJECT_ID":"2025-098X","EPOCH":"2025-09-08T01:24:10.484352","MEAN_MOTION":14.98337422,"ECCENTRICITY":0.00024678,"INCLINATION":70.0044,"RA_OF_ASC_NODE":15.0273,"ARG_OF_PERICENTER":270.757,"MEAN_ANOMALY":89.3306,"EPHEMERIS_TYPE":0,"CLASSIFICATION_TYPE":"U","NORAD_CAT_ID":63947,"ELEMENT_SET_NO":999,"REV_AT_EPOCH":1919,"BSTAR":0.0001900739,"MEAN_MOTION_DOT":2.176e-5,"MEAN_MOTION_DDOT":0},{"OBJECT_NAME":"STARLINK-33983","OBJECT_ID":"2025-098Y","EPOCH":"2025-09-07T18:29:49.103808","MEAN_MOTION":14.98334012,"ECCENTRICITY":0.00032017,"INCLINATION":70.0027,"RA_OF_ASC_NODE":15.626,"ARG_OF_PERICENTER":270.8479,"MEAN_ANOMALY":89.2313,"EPHEMERIS_TYPE":0,"CLASSIFICATION_TYPE":"U","NORAD_CAT_ID":63948,"ELEMENT_SET_NO":999,"REV_AT_EPOCH":1915,"BSTAR":7.4765737e-5,"MEAN_MOTION_DOT":7.99e-6,"MEAN_MOTION_DDOT":0},{"OBJECT_NAME":"STARLINK-33993","OBJECT_ID":"2025-098Z","EPOCH":"2025-09-08T02:00:26.356896","MEAN_MOTION":14.98343375,"ECCENTRICITY":0.00031337,"INCLINATION":70.0029,"RA_OF_ASC_NODE":14.7031,"ARG_OF_PERICENTER":269.5206,"MEAN_ANOMALY":90.5594,"EPHEMERIS_TYPE":0,"CLASSIFICATION_TYPE":"U","NORAD_CAT_ID":63949,"ELEMENT_SET_NO":999,"REV_AT_EPOCH":1920,"BSTAR":0.00026404506,"MEAN_MOTION_DOT":3.06e-5,"MEAN_MOTION_DDOT":0},{"OBJECT_NAME":"STARLINK-33962","OBJECT_ID":"2025-098AA","EPOCH":"2025-09-08T06:00:02.000160","MEAN_MOTION":14.98309334,"ECCENTRICITY":0.00031251,"INCLINATION":70.0026,"RA_OF_ASC_NODE":14.3386,"ARG_OF_PERICENTER":267.2169,"MEAN_ANOMALY":226.0299,"EPHEMERIS_TYPE":0,"CLASSIFICATION_TYPE":"U","NORAD_CAT_ID":63950,"ELEMENT_SET_NO":999,"REV_AT_EPOCH":567,"BSTAR":0.0047253872,"MEAN_MOTION_DOT":0.00056718,"MEAN_MOTION_DDOT":0},{"OBJECT_NAME":"STARLINK-33998","OBJECT_ID":"2025-098AB","EPOCH":"2025-09-07T18:17:33.522720","MEAN_MOTION":14.98343407,"ECCENTRICITY":0.00031763,"INCLINATION":70.0029,"RA_OF_ASC_NODE":15.5961,"ARG_OF_PERICENTER":270.7242,"MEAN_ANOMALY":89.3553,"EPHEMERIS_TYPE":0,"CLASSIFICATION_TYPE":"U","NORAD_CAT_ID":63951,"ELEMENT_SET_NO":999,"REV_AT_EPOCH":1915,"BSTAR":0.00034405522,"MEAN_MOTION_DOT":4.016e-5,"MEAN_MOTION_DDOT":0},{"OBJECT_NAME":"STARLINK-34159","OBJECT_ID":"2025-099A","EPOCH":"2025-09-08T00:06:19.277856","MEAN_MOTION":15.27594931,"ECCENTRICITY":0.00026204,"INCLINATION":43.001,"RA_OF_ASC_NODE":128.2188,"ARG_OF_PERICENTER":262.6187,"MEAN_ANOMALY":97.4367,"EPHEMERIS_TYPE":0,"CLASSIFICATION_TYPE":"U","NORAD_CAT_ID":63952,"ELEMENT_SET_NO":999,"REV_AT_EPOCH":1938,"BSTAR":0.00090782707,"MEAN_MOTION_DOT":0.00024816,"MEAN_MOTION_DDOT":0},{"OBJECT_NAME":"STARLINK-34137","OBJECT_ID":"2025-099B","EPOCH":"2025-09-08T01:14:35.034432","MEAN_MOTION":15.27592506,"ECCENTRICITY":1.056e-5,"INCLINATION":42.9991,"RA_OF_ASC_NODE":127.7131,"ARG_OF_PERICENTER":4.4603,"MEAN_ANOMALY":355.625,"EPHEMERIS_TYPE":0,"CLASSIFICATION_TYPE":"U","NORAD_CAT_ID":63953,"ELEMENT_SET_NO":999,"REV_AT_EPOCH":1940,"BSTAR":0.00091182894,"MEAN_MOTION_DOT":0.00024924,"MEAN_MOTION_DDOT":0},{"OBJECT_NAME":"STARLINK-33974","OBJECT_ID":"2025-099C","EPOCH":"2025-09-08T01:51:35.021088","MEAN_MOTION":15.27586146,"ECCENTRICITY":0.00017129,"INCLINATION":43,"RA_OF_ASC_NODE":127.9062,"ARG_OF_PERICENTER":281.3265,"MEAN_ANOMALY":78.7394,"EPHEMERIS_TYPE":0,"CLASSIFICATION_TYPE":"U","NORAD_CAT_ID":63954,"ELEMENT_SET_NO":999,"REV_AT_EPOCH":1940,"BSTAR":0.0014238607,"MEAN_MOTION_DOT":0.00039135,"MEAN_MOTION_DDOT":0},{"OBJECT_NAME":"STARLINK-34170","OBJECT_ID":"2025-099D","EPOCH":"2025-09-08T01:46:01.895520","MEAN_MOTION":15.27581863,"ECCENTRICITY":0.00014557,"INCLINATION":42.9994,"RA_OF_ASC_NODE":127.8778,"ARG_OF_PERICENTER":270.7558,"MEAN_ANOMALY":89.3127,"EPHEMERIS_TYPE":0,"CLASSIFICATION_TYPE":"U","NORAD_CAT_ID":63955,"ELEMENT_SET_NO":999,"REV_AT_EPOCH":1939,"BSTAR":0.0011405995,"MEAN_MOTION_DOT":0.0003126,"MEAN_MOTION_DDOT":0},{"OBJECT_NAME":"STARLINK-34187","OBJECT_ID":"2025-099E","EPOCH":"2025-09-07T22:28:28.072128","MEAN_MOTION":15.27592837,"ECCENTRICITY":6.029e-5,"INCLINATION":43.0006,"RA_OF_ASC_NODE":128.5687,"ARG_OF_PERICENTER":270.3485,"MEAN_ANOMALY":89.7298,"EPHEMERIS_TYPE":0,"CLASSIFICATION_TYPE":"U","NORAD_CAT_ID":63956,"ELEMENT_SET_NO":999,"REV_AT_EPOCH":1938,"BSTAR":0.0009878747,"MEAN_MOTION_DOT":0.00027032,"MEAN_MOTION_DDOT":0},{"OBJECT_NAME":"STARLINK-34142","OBJECT_ID":"2025-099F","EPOCH":"2025-09-07T23:57:04.507776","MEAN_MOTION":15.2758278,"ECCENTRICITY":0.00016052,"INCLINATION":43.0044,"RA_OF_ASC_NODE":128.1695,"ARG_OF_PERICENTER":271.5895,"MEAN_ANOMALY":88.4773,"EPHEMERIS_TYPE":0,"CLASSIFICATION_TYPE":"U","NORAD_CAT_ID":63957,"ELEMENT_SET_NO":999,"REV_AT_EPOCH":1939,"BSTAR":0.00094712625,"MEAN_MOTION_DOT":0.00025895,"MEAN_MOTION_DDOT":0},{"OBJECT_NAME":"STARLINK-34144","OBJECT_ID":"2025-099G","EPOCH":"2025-09-07T22:17:21.853824","MEAN_MOTION":15.27638481,"ECCENTRICITY":4.902e-5,"INCLINATION":43.0021,"RA_OF_ASC_NODE":128.5097,"ARG_OF_PERICENTER":100.429,"MEAN_ANOMALY":259.6617,"EPHEMERIS_TYPE":0,"CLASSIFICATION_TYPE":"U","NORAD_CAT_ID":63958,"ELEMENT_SET_NO":999,"REV_AT_EPOCH":1938,"BSTAR":0.00099717183,"MEAN_MOTION_DOT":0.00027328,"MEAN_MOTION_DDOT":0},{"OBJECT_NAME":"STARLINK-34099","OBJECT_ID":"2025-099H","EPOCH":"2025-09-08T00:08:10.058208","MEAN_MOTION":15.27518707,"ECCENTRICITY":0.00018198,"INCLINATION":43.0024,"RA_OF_ASC_NODE":128.2263,"ARG_OF_PERICENTER":276.0305,"MEAN_ANOMALY":84.034,"EPHEMERIS_TYPE":0,"CLASSIFICATION_TYPE":"U","NORAD_CAT_ID":63959,"ELEMENT_SET_NO":999,"REV_AT_EPOCH":1939,"BSTAR":0.00036687601,"MEAN_MOTION_DOT":9.828e-5,"MEAN_MOTION_DDOT":0},{"OBJECT_NAME":"STARLINK-34107","OBJECT_ID":"2025-099J","EPOCH":"2025-09-08T01:20:07.146528","MEAN_MOTION":15.27579881,"ECCENTRICITY":0.0001726,"INCLINATION":43.0015,"RA_OF_ASC_NODE":127.7418,"ARG_OF_PERICENTER":253.7858,"MEAN_ANOMALY":106.2804,"EPHEMERIS_TYPE":0,"CLASSIFICATION_TYPE":"U","NORAD_CAT_ID":63960,"ELEMENT_SET_NO":999,"REV_AT_EPOCH":1940,"BSTAR":0.0010586246,"MEAN_MOTION_DOT":0.00028984,"MEAN_MOTION_DDOT":0}]
